[{"OBJECT_NAME":"STARLINK-5430","OBJECT_ID":"2022-175AX","EPOCH":"2026-03-09T03:50:54.068928","MEAN_MOTION":15.08825576,"ECCENTRICITY":0.00014372,"INCLINATION":53.2176,"RA_OF_ASC_NODE":46.1614,"ARG_OF_PERICENTER":82.8452,"MEAN_ANOMALY":277.2704,"EPHEMERIS_TYPE":0,"CLASSIFICATION_TYPE":"U","NORAD_CAT_ID":54803,"ELEMENT_SET_NO":999,"REV_AT_EPOCH":17984,"BSTAR":-2.7971383e-5,"MEAN_MOTION_DOT":-7.33e-6,"MEAN_MOTION_DDOT":0},{"OBJECT_NAME":"NEONSAT-1A","OBJECT_ID":"2026-019A","EPOCH":"2026-03-09T21:53:31.879392","MEAN_MOTION":15.0780294,"ECCENTRICITY":0.00137261,"INCLINATION":97.411,"RA_OF_ASC_NODE":192.4819,"ARG_OF_PERICENTER":167.4713,"MEAN_ANOMALY":192.686,"EPHEMERIS_TYPE":0,"CLASSIFICATION_TYPE":"U","NORAD_CAT_ID":67614,"ELEMENT_SET_NO":999,"REV_AT_EPOCH":585,"BSTAR":0.00027109929,"MEAN_MOTION_DOT":4.096e-5,"MEAN_MOTION_DDOT":0}]
